{"type":"FeatureCollection","features":[{"type":"Feature","id":"osm-relation-10189309","geometry":{"type":"Polygon","coordinates":[[[-44.3672454,-2.5664552],[-44.3625462,-2.5674199],[-44.3635547,-2.5713855],[-44.3610345,-2.5720699],[-44.3606723,-2.5731209],[-44.3603558,-2.5738068],[-44.3600661,-2.5744285],[-44.3599159,-2.5750126],[-44.359991,-2.5757522],[-44.36027,-2.5762988],[-44.3608601,-2.5769419],[-44.3614823,-2.5763738],[-44.363097,-2.5748787],[-44.3633331,-2.5751091],[-44.3644971,-2.5762988],[-44.364524,-2.5764703],[-44.3662298,-2.5785496],[-44.3659187,-2.578839],[-44.3670452,-2.5802216],[-44.3669594,-2.5803288],[-44.3672115,-2.580602],[-44.36741,-2.580527],[-44.3676049,-2.5808335],[-44.3677872,-2.5809567],[-44.3677373,-2.5814863],[-44.3676317,-2.581849],[-44.3678338,-2.581915],[-44.3680179,-2.5819696],[-44.3681172,-2.5819856],[-44.3681654,-2.5819669],[-44.368211,-2.5819106],[-44.368262,-2.5818999],[-44.3685114,-2.5819374],[-44.3685731,-2.5819562],[-44.3686,-2.5819749],[-44.3686241,-2.5820124],[-44.3683371,-2.5837702],[-44.3680045,-2.5857557],[-44.3683829,-2.5858312],[-44.3698713,-2.5767794],[-44.3699169,-2.5765918],[-44.3699893,-2.5764712],[-44.3723936,-2.5732227],[-44.3724043,-2.5731477],[-44.3740136,-2.5723546],[-44.3741102,-2.5725582],[-44.3746895,-2.5722903],[-44.3744642,-2.5718187],[-44.3739171,-2.5720866],[-44.37396,-2.5722045],[-44.3721683,-2.5731156],[-44.369764,-2.576356],[-44.3697104,-2.5763801],[-44.3696433,-2.576348],[-44.3694609,-2.576147],[-44.3693644,-2.5760211],[-44.3692893,-2.575938],[-44.3692464,-2.575855],[-44.369241,-2.5757907],[-44.3692651,-2.5757344],[-44.3693027,-2.5757076],[-44.3693322,-2.5757076],[-44.3694634,-2.5758528],[-44.3696705,-2.5760102],[-44.36978,-2.5758845],[-44.3697318,-2.5758335],[-44.3697023,-2.5757692],[-44.3694904,-2.5755334],[-44.3693429,-2.5753298],[-44.3692812,-2.5751985],[-44.3692142,-2.5749814],[-44.3691659,-2.5748689],[-44.369064,-2.5747215],[-44.3687207,-2.5742633],[-44.3686402,-2.5741401],[-44.3686134,-2.5740275],[-44.3686134,-2.5738775],[-44.368667,-2.5737167],[-44.3687153,-2.5735559],[-44.3688279,-2.5731755],[-44.3689889,-2.572661],[-44.3691069,-2.5723877],[-44.3691981,-2.5721787],[-44.3692946,-2.5720554],[-44.3695629,-2.5718679],[-44.3680716,-2.5705817],[-44.3680287,-2.5697993],[-44.3674922,-2.5690061],[-44.3672454,-2.5664552]]]},"properties":{"harbour":"yes","landuse":"harbour","name":"Porto do Itaqui","seamark:name":"Porto de Itaqui","seamark:type":"harbour","type":"multipolygon","id":"osm-relation-10189309","osmType":"relation","osmId":"10189309","named":true,"category":"area","kind":"harbour","source":"OpenStreetMap","sourceUrl":"https://www.openstreetmap.org/relation/10189309","tags":"{\"harbour\":\"yes\",\"landuse\":\"harbour\",\"name\":\"Porto do Itaqui\",\"seamark:name\":\"Porto de Itaqui\",\"seamark:type\":\"harbour\",\"type\":\"multipolygon\"}","clippedToPort":false,"areaM2":1016057.5}},{"type":"Feature","id":"osm-way-1022049849","geometry":{"type":"LineString","coordinates":[[-44.3653304,-2.5756011],[-44.365296,-2.5755629],[-44.3652526,-2.5755147],[-44.3650612,-2.5752983],[-44.364988,-2.5751956],[-44.3649226,-2.5750859],[-44.3648677,-2.5749801],[-44.3647467,-2.5747169],[-44.3647085,-2.5746269],[-44.3646779,-2.5745467],[-44.3646028,-2.5742694],[-44.3644156,-2.573588],[-44.3643297,-2.5732722],[-44.3642839,-2.5731053],[-44.364238,-2.5729384]]},"properties":{"highway":"tertiary","source":"OpenStreetMap","id":"osm-way-1022049849","osmType":"way","osmId":"1022049849","name":"Via coletora","named":false,"category":"road","kind":"tertiary","sourceUrl":"https://www.openstreetmap.org/way/1022049849","tags":"{\"highway\":\"tertiary\",\"source\":\"Yahoo hires\"}","clippedToPort":false,"lengthM":324.5}},{"type":"Feature","id":"osm-way-1068360490","geometry":{"type":"LineString","coordinates":[[-44.3666685,-2.5714484],[-44.3665139,-2.5710538],[-44.3663748,-2.5701576],[-44.3660467,-2.5680762],[-44.3658419,-2.5668869],[-44.36580737312965,-2.5667504129132257]]},"properties":{"electrified":"no","gauge":"1000;1600","name":"Ferrovia Transnordestina","railway":"rail","service":"yard","source":"OpenStreetMap","usage":"main","id":"osm-way-1068360490","osmType":"way","osmId":"1068360490","named":true,"category":"railway","kind":"rail","sourceUrl":"https://www.openstreetmap.org/way/1068360490","tags":"{\"electrified\":\"no\",\"gauge\":\"1000;1600\",\"name\":\"Ferrovia Transnordestina\",\"railway\":\"rail\",\"service\":\"yard\",\"source\":\"Yahoo hires\",\"usage\":\"main\"}","clippedToPort":true,"lengthM":532.1}},{"type":"Feature","id":"osm-way-1068360491","geometry":{"type":"LineString","coordinates":[[-44.36598915772392,-2.5667130943062086],[-44.3660242,-2.566951],[-44.3667807,-2.57139],[-44.3669045,-2.5721225]]},"properties":{"electrified":"no","gauge":"1000;1600","railway":"rail","service":"yard","usage":"industrial","id":"osm-way-1068360491","osmType":"way","osmId":"1068360491","name":"Linha ferroviária","named":false,"category":"railway","kind":"rail","source":"OpenStreetMap","sourceUrl":"https://www.openstreetmap.org/way/1068360491","tags":"{\"electrified\":\"no\",\"gauge\":\"1000;1600\",\"railway\":\"rail\",\"service\":\"yard\",\"usage\":\"industrial\"}","clippedToPort":true,"lengthM":610.0}},{"type":"Feature","id":"osm-way-1068360492","geometry":{"type":"LineString","coordinates":[[-44.3668297,-2.5714134],[-44.3660709,-2.5668717],[-44.36604101901212,-2.5667024476887565]]},"properties":{"electrified":"no","gauge":"1000;1600","railway":"rail","service":"yard","usage":"industrial","id":"osm-way-1068360492","osmType":"way","osmId":"1068360492","name":"Linha ferroviária","named":false,"category":"railway","kind":"rail","source":"OpenStreetMap","sourceUrl":"https://www.openstreetmap.org/way/1068360492","tags":"{\"electrified\":\"no\",\"gauge\":\"1000;1600\",\"railway\":\"rail\",\"service\":\"yard\",\"usage\":\"industrial\"}","clippedToPort":true,"lengthM":531.1}},{"type":"Feature","id":"osm-way-1068360494","geometry":{"type":"LineString","coordinates":[[-44.3694845,-2.5787984],[-44.3696386,-2.5777618],[-44.36966,-2.5774866],[-44.3696633,-2.5772591],[-44.3696356,-2.5770771],[-44.3696099,-2.57699],[-44.3695705,-2.5768561],[-44.3695308,-2.5767851],[-44.3694632,-2.5766643],[-44.3693038,-2.5764596],[-44.3673949,-2.5742162],[-44.3672569,-2.5740392],[-44.3671303,-2.5737979],[-44.3671186,-2.57377],[-44.3670232,-2.5735432],[-44.3669679,-2.5733384],[-44.3667687,-2.5721989],[-44.3666685,-2.5714484]]},"properties":{"electrified":"no","gauge":"1000;1600","name":"Ferrovia Transnordestina","railway":"rail","service":"yard","source":"OpenStreetMap","usage":"main","id":"osm-way-1068360494","osmType":"way","osmId":"1068360494","named":true,"category":"railway","kind":"rail","sourceUrl":"https://www.openstreetmap.org/way/1068360494","tags":"{\"electrified\":\"no\",\"gauge\":\"1000;1600\",\"name\":\"Ferrovia Transnordestina\",\"railway\":\"rail\",\"service\":\"yard\",\"source\":\"Yahoo hires\",\"usage\":\"main\"}","clippedToPort":false,"lengthM":921.6}},{"type":"Feature","id":"osm-way-1068360495","geometry":{"type":"LineString","coordinates":[[-44.36587246894396,-2.5667370493764383],[-44.3659283,-2.5669689],[-44.3661336,-2.5680127],[-44.366532,-2.5706059],[-44.3666377,-2.5711806],[-44.3666685,-2.5714484]]},"properties":{"electrified":"no","gauge":"1000","railway":"rail","service":"yard","usage":"industrial","id":"osm-way-1068360495","osmType":"way","osmId":"1068360495","name":"Linha ferroviária","named":false,"category":"railway","kind":"rail","source":"OpenStreetMap","sourceUrl":"https://www.openstreetmap.org/way/1068360495","tags":"{\"electrified\":\"no\",\"gauge\":\"1000\",\"railway\":\"rail\",\"service\":\"yard\",\"usage\":\"industrial\"}","clippedToPort":true,"lengthM":531.5}},{"type":"Feature","id":"osm-way-1068360496","geometry":{"type":"LineString","coordinates":[[-44.3666377,-2.5711806],[-44.3667332,-2.5713715],[-44.3667698,-2.5715197],[-44.3668674,-2.5721188]]},"properties":{"electrified":"no","gauge":"1000;1600","railway":"rail","service":"yard","usage":"industrial","id":"osm-way-1068360496","osmType":"way","osmId":"1068360496","name":"Linha ferroviária","named":false,"category":"railway","kind":"rail","source":"OpenStreetMap","sourceUrl":"https://www.openstreetmap.org/way/1068360496","tags":"{\"electrified\":\"no\",\"gauge\":\"1000;1600\",\"railway\":\"rail\",\"service\":\"yard\",\"usage\":\"industrial\"}","clippedToPort":false,"lengthM":108.2}},{"type":"Feature","id":"osm-way-1068432726","geometry":{"type":"LineString","coordinates":[[-44.36166704558294,-2.571898122285151],[-44.3622391,-2.5725189]]},"properties":{"electrified":"no","gauge":"1000;1600","railway":"rail","service":"yard","usage":"industrial","id":"osm-way-1068432726","osmType":"way","osmId":"1068432726","name":"Linha ferroviária","named":false,"category":"railway","kind":"rail","source":"OpenStreetMap","sourceUrl":"https://www.openstreetmap.org/way/1068432726","tags":"{\"electrified\":\"no\",\"gauge\":\"1000;1600\",\"railway\":\"rail\",\"service\":\"yard\",\"usage\":\"industrial\"}","clippedToPort":true,"lengthM":93.8}},{"type":"Feature","id":"osm-way-1068432727","geometry":{"type":"LineString","coordinates":[[-44.361795361387834,-2.571863276107518],[-44.3618435,-2.5718892],[-44.361979,-2.5719589],[-44.362101,-2.5720419],[-44.3622123,-2.572133],[-44.3628936,-2.5728592]]},"properties":{"electrified":"no","gauge":"1000","railway":"rail","service":"yard","usage":"industrial","id":"osm-way-1068432727","osmType":"way","osmId":"1068432727","name":"Linha ferroviária","named":false,"category":"railway","kind":"rail","source":"OpenStreetMap","sourceUrl":"https://www.openstreetmap.org/way/1068432727","tags":"{\"electrified\":\"no\",\"gauge\":\"1000\",\"railway\":\"rail\",\"service\":\"yard\",\"usage\":\"industrial\"}","clippedToPort":true,"lengthM":166.1}},{"type":"Feature","id":"osm-way-1068432728","geometry":{"type":"LineString","coordinates":[[-44.3630541,-2.5747286],[-44.3628963,-2.5748179],[-44.3628185,-2.5748715],[-44.3617751,-2.5758388]]},"properties":{"electrified":"no","gauge":"1000","railway":"rail","service":"yard","usage":"industrial","id":"osm-way-1068432728","osmType":"way","osmId":"1068432728","name":"Linha ferroviária","named":false,"category":"railway","kind":"rail","source":"OpenStreetMap","sourceUrl":"https://www.openstreetmap.org/way/1068432728","tags":"{\"electrified\":\"no\",\"gauge\":\"1000\",\"railway\":\"rail\",\"service\":\"yard\",\"usage\":\"industrial\"}","clippedToPort":false,"lengthM":188.8}},{"type":"Feature","id":"osm-way-1068432729","geometry":{"type":"LineString","coordinates":[[-44.3634484,-2.5737472],[-44.3636124,-2.5739873],[-44.3638324,-2.5742713],[-44.3645351,-2.5750617]]},"properties":{"electrified":"no","gauge":"1000;1600","railway":"rail","service":"yard","usage":"industrial","id":"osm-way-1068432729","osmType":"way","osmId":"1068432729","name":"Linha ferroviária","named":false,"category":"railway","kind":"rail","source":"OpenStreetMap","sourceUrl":"https://www.openstreetmap.org/way/1068432729","tags":"{\"electrified\":\"no\",\"gauge\":\"1000;1600\",\"railway\":\"rail\",\"service\":\"yard\",\"usage\":\"industrial\"}","clippedToPort":false,"lengthM":189.8}},{"type":"Feature","id":"osm-way-1068432730","geometry":{"type":"LineString","coordinates":[[-44.3659375,-2.5765748],[-44.3661015,-2.576782],[-44.3662544,-2.5770285],[-44.3663912,-2.5772536],[-44.3667157,-2.5778109]]},"properties":{"electrified":"no","gauge":"1000;1600","railway":"rail","service":"yard","usage":"industrial","id":"osm-way-1068432730","osmType":"way","osmId":"1068432730","name":"Linha ferroviária","named":false,"category":"railway","kind":"rail","source":"OpenStreetMap","sourceUrl":"https://www.openstreetmap.org/way/1068432730","tags":"{\"electrified\":\"no\",\"gauge\":\"1000;1600\",\"railway\":\"rail\",\"service\":\"yard\",\"usage\":\"industrial\"}","clippedToPort":false,"lengthM":162.6}},{"type":"Feature","id":"osm-way-1068432731","geometry":{"type":"LineString","coordinates":[[-44.3657293,-2.5753597],[-44.3656948,-2.5753137]]},"properties":{"highway":"unclassified","oneway":"yes","id":"osm-way-1068432731","osmType":"way","osmId":"1068432731","name":"Via local","named":false,"category":"road","kind":"unclassified","source":"OpenStreetMap","sourceUrl":"https://www.openstreetmap.org/way/1068432731","tags":"{\"highway\":\"unclassified\",\"oneway\":\"yes\"}","clippedToPort":false,"lengthM":6.4}},{"type":"Feature","id":"osm-way-1068438572","geometry":{"type":"LineString","coordinates":[[-44.36708855334604,-2.566487399090711],[-44.3671318,-2.5668255],[-44.3672882,-2.5679764],[-44.3673919,-2.5686891],[-44.3674244,-2.5688841],[-44.3674773,-2.5690709],[-44.3675444,-2.5692171],[-44.3675672,-2.5692562],[-44.3676785,-2.5694466],[-44.367959,-2.5700192],[-44.3679773,-2.5702142],[-44.3679753,-2.5704091],[-44.3679428,-2.5706772],[-44.367833,-2.5709229],[-44.3674386,-2.5716255],[-44.3672801,-2.572054],[-44.3672516,-2.5721901],[-44.3672496,-2.572322],[-44.3672943,-2.572647],[-44.3673268,-2.5727668],[-44.3674244,-2.5729252],[-44.3688574,-2.5751245],[-44.3689499,-2.5752301],[-44.3690709,-2.5753133]]},"properties":{"electrified":"no","gauge":"1000;1600","railway":"rail","service":"yard","usage":"industrial","id":"osm-way-1068438572","osmType":"way","osmId":"1068438572","name":"Linha ferroviária","named":false,"category":"railway","kind":"rail","source":"OpenStreetMap","sourceUrl":"https://www.openstreetmap.org/way/1068438572","tags":"{\"electrified\":\"no\",\"gauge\":\"1000;1600\",\"railway\":\"rail\",\"service\":\"yard\",\"usage\":\"industrial\"}","clippedToPort":true,"lengthM":1077.6}},{"type":"Feature","id":"osm-way-1068438573","geometry":{"type":"LineString","coordinates":[[-44.36711210547002,-2.5664825640690068],[-44.367401,-2.5686276],[-44.3674519,-2.5688838],[-44.3674983,-2.5690629],[-44.3675446,-2.569174],[-44.3675892,-2.5692454],[-44.3678027,-2.5695877],[-44.3679263,-2.5698562],[-44.3679804,-2.5700029],[-44.3679927,-2.5702128],[-44.3679974,-2.5704443],[-44.3679742,-2.5706249],[-44.367934,-2.5707623],[-44.3678676,-2.570912],[-44.367438,-2.5717177],[-44.3673314,-2.5719631],[-44.367299,-2.5721283],[-44.3672835,-2.5722873],[-44.3672943,-2.5724355],[-44.367316,-2.5725867],[-44.3673546,-2.5727303],[-44.3674241,-2.5728568],[-44.3676528,-2.573218],[-44.3688199,-2.5750072],[-44.3689422,-2.5751742],[-44.3690709,-2.5753133],[-44.3690887,-2.575328],[-44.3691346,-2.5753656],[-44.3693575,-2.5755488],[-44.3696279,-2.5758067]]},"properties":{"electrified":"no","gauge":"1000;1600","railway":"rail","service":"yard","usage":"industrial","id":"osm-way-1068438573","osmType":"way","osmId":"1068438573","name":"Linha ferroviária","named":false,"category":"railway","kind":"rail","source":"OpenStreetMap","sourceUrl":"https://www.openstreetmap.org/way/1068438573","tags":"{\"electrified\":\"no\",\"gauge\":\"1000;1600\",\"railway\":\"rail\",\"service\":\"yard\",\"usage\":\"industrial\"}","clippedToPort":true,"lengthM":1157.2}},{"type":"Feature","id":"osm-way-1068776142","geometry":{"type":"LineString","coordinates":[[-44.3666685,-2.5714484],[-44.3665362,-2.5709331],[-44.3663067,-2.5694493],[-44.3658981,-2.5670373],[-44.365832846004345,-2.566745183580101]]},"properties":{"electrified":"no","gauge":"1000;1600","name":"Ferrovia Transnordestina","railway":"rail","service":"yard","source":"OpenStreetMap","usage":"industrial","id":"osm-way-1068776142","osmType":"way","osmId":"1068776142","named":true,"category":"railway","kind":"rail","sourceUrl":"https://www.openstreetmap.org/way/1068776142","tags":"{\"electrified\":\"no\",\"gauge\":\"1000;1600\",\"name\":\"Ferrovia Transnordestina\",\"railway\":\"rail\",\"service\":\"yard\",\"source\":\"Yahoo hires\",\"usage\":\"industrial\"}","clippedToPort":true,"lengthM":531.4}},{"type":"Feature","id":"osm-way-1328705748","geometry":{"type":"LineString","coordinates":[[-44.3655237,-2.5669436],[-44.3655108,-2.5670239],[-44.3654943,-2.5670709],[-44.3654739,-2.5671439],[-44.3654618,-2.5671895],[-44.365449,-2.5672457]]},"properties":{"highway":"service","oneway":"yes","id":"osm-way-1328705748","osmType":"way","osmId":"1328705748","name":"Via de serviço","named":false,"category":"road","kind":"service","source":"OpenStreetMap","sourceUrl":"https://www.openstreetmap.org/way/1328705748","tags":"{\"highway\":\"service\",\"oneway\":\"yes\"}","clippedToPort":false,"lengthM":34.7}},{"type":"Feature","id":"osm-way-1328705749","geometry":{"type":"LineString","coordinates":[[-44.365498,-2.566886],[-44.3655237,-2.5669436]]},"properties":{"highway":"service","oneway":"yes","id":"osm-way-1328705749","osmType":"way","osmId":"1328705749","name":"Via de serviço","named":false,"category":"road","kind":"service","source":"OpenStreetMap","sourceUrl":"https://www.openstreetmap.org/way/1328705749","tags":"{\"highway\":\"service\",\"oneway\":\"yes\"}","clippedToPort":false,"lengthM":7.0}},{"type":"Feature","id":"osm-way-1328705750","geometry":{"type":"LineString","coordinates":[[-44.36549209482059,-2.566815136479949],[-44.365496,-2.5668277],[-44.365498,-2.566886]]},"properties":{"highway":"service","oneway":"yes","id":"osm-way-1328705750","osmType":"way","osmId":"1328705750","name":"Via de serviço","named":false,"category":"road","kind":"service","source":"OpenStreetMap","sourceUrl":"https://www.openstreetmap.org/way/1328705750","tags":"{\"highway\":\"service\",\"oneway\":\"yes\"}","clippedToPort":true,"lengthM":7.9}},{"type":"Feature","id":"osm-way-1450381456","geometry":{"type":"LineString","coordinates":[[-44.3669679,-2.577716],[-44.3669349,-2.5776767],[-44.3667526,-2.5774446],[-44.366693,-2.5773502],[-44.3666002,-2.5771892],[-44.3665253,-2.5770567],[-44.3664445,-2.5769192],[-44.3663776,-2.5768231],[-44.3663067,-2.5767365],[-44.3660264,-2.5764043],[-44.3655067,-2.5758046],[-44.3653304,-2.5756011]]},"properties":{"highway":"unclassified","source":"OpenStreetMap","id":"osm-way-1450381456","osmType":"way","osmId":"1450381456","name":"Via local","named":false,"category":"road","kind":"unclassified","sourceUrl":"https://www.openstreetmap.org/way/1450381456","tags":"{\"highway\":\"unclassified\",\"source\":\"Yahoo hires\"}","clippedToPort":false,"lengthM":298.1}},{"type":"Feature","id":"osm-way-1450381457","geometry":{"type":"LineString","coordinates":[[-44.3684289,-2.5789933],[-44.3683953,-2.5794933],[-44.3683317,-2.579964],[-44.3682542,-2.5805843]]},"properties":{"highway":"service","id":"osm-way-1450381457","osmType":"way","osmId":"1450381457","name":"Via de serviço","named":false,"category":"road","kind":"service","source":"OpenStreetMap","sourceUrl":"https://www.openstreetmap.org/way/1450381457","tags":"{\"highway\":\"service\"}","clippedToPort":false,"lengthM":178.0}},{"type":"Feature","id":"osm-way-29134962","geometry":{"type":"LineString","coordinates":[[-44.364238,-2.5729384],[-44.3641505,-2.5726043],[-44.3635257,-2.5700876],[-44.3632683,-2.5690291],[-44.3630264,-2.5680771],[-44.3629337,-2.5676696],[-44.3629024,-2.5675696],[-44.3628633,-2.5674835],[-44.3628196,-2.5674025]]},"properties":{"highway":"tertiary","oneway":"yes","source":"OpenStreetMap","id":"osm-way-29134962","osmType":"way","osmId":"29134962","name":"Via coletora","named":false,"category":"road","kind":"tertiary","sourceUrl":"https://www.openstreetmap.org/way/29134962","tags":"{\"highway\":\"tertiary\",\"oneway\":\"yes\",\"source\":\"Yahoo hires\"}","clippedToPort":false,"lengthM":635.9}},{"type":"Feature","id":"osm-way-395340247","geometry":{"type":"LineString","coordinates":[[-44.3667921,-2.574128],[-44.3668027,-2.5741001],[-44.3668117,-2.5740764],[-44.3668611,-2.5740305],[-44.3669224,-2.5740024],[-44.3669894,-2.5739948],[-44.3670554,-2.5740086],[-44.3671137,-2.5740423]]},"properties":{"highway":"tertiary","junction":"roundabout","oneway":"yes","id":"osm-way-395340247","osmType":"way","osmId":"395340247","name":"Via coletora","named":false,"category":"road","kind":"tertiary","source":"OpenStreetMap","sourceUrl":"https://www.openstreetmap.org/way/395340247","tags":"{\"highway\":\"tertiary\",\"junction\":\"roundabout\",\"oneway\":\"yes\"}","clippedToPort":false,"lengthM":43.6}},{"type":"Feature","id":"osm-way-395340249","geometry":{"type":"LineString","coordinates":[[-44.3670661,-2.574503],[-44.3670135,-2.5745084],[-44.3669274,-2.5745263],[-44.3668273,-2.5745472],[-44.3667163,-2.5745796],[-44.3665957,-2.574621],[-44.3664769,-2.5746813],[-44.3663714,-2.574759],[-44.3662969,-2.5748207],[-44.3661313,-2.5749816],[-44.3657822,-2.5753216],[-44.3657293,-2.5753597],[-44.365354,-2.5755868],[-44.3653304,-2.5756011]]},"properties":{"highway":"tertiary","oneway":"yes","id":"osm-way-395340249","osmType":"way","osmId":"395340249","name":"Via coletora","named":false,"category":"road","kind":"tertiary","source":"OpenStreetMap","sourceUrl":"https://www.openstreetmap.org/way/395340249","tags":"{\"highway\":\"tertiary\",\"oneway\":\"yes\"}","clippedToPort":false,"lengthM":233.0}},{"type":"Feature","id":"osm-way-395340251","geometry":{"type":"LineString","coordinates":[[-44.3670661,-2.574503],[-44.3670092,-2.5744791],[-44.3669564,-2.5744472],[-44.3669089,-2.5744079],[-44.3668675,-2.5743622],[-44.3668333,-2.5743109],[-44.3668069,-2.5742552],[-44.3667888,-2.5741963],[-44.3667921,-2.574128]]},"properties":{"highway":"tertiary","junction":"roundabout","oneway":"yes","id":"osm-way-395340251","osmType":"way","osmId":"395340251","name":"Via coletora","named":false,"category":"road","kind":"tertiary","source":"OpenStreetMap","sourceUrl":"https://www.openstreetmap.org/way/395340251","tags":"{\"highway\":\"tertiary\",\"junction\":\"roundabout\",\"oneway\":\"yes\"}","clippedToPort":false,"lengthM":55.6}},{"type":"Feature","id":"osm-way-395340255","geometry":{"type":"LineString","coordinates":[[-44.3677631,-2.5747376],[-44.3678926,-2.5748783],[-44.3680085,-2.5750042],[-44.3680467,-2.5750458],[-44.3681393,-2.5751549],[-44.3681831,-2.5752127],[-44.3683525,-2.5754363],[-44.3684348,-2.5755416],[-44.3685074,-2.5756346],[-44.368602,-2.5757866],[-44.368669,-2.5759065],[-44.3686866,-2.5759567],[-44.3687133,-2.5760331],[-44.3687435,-2.5761531],[-44.368779,-2.5762937],[-44.3688373,-2.5765248],[-44.3688524,-2.5766585],[-44.3688615,-2.5767492],[-44.3688393,-2.5768189],[-44.3688036,-2.5768561]]},"properties":{"highway":"unclassified","oneway":"yes","id":"osm-way-395340255","osmType":"way","osmId":"395340255","name":"Via local","named":false,"category":"road","kind":"unclassified","source":"OpenStreetMap","sourceUrl":"https://www.openstreetmap.org/way/395340255","tags":"{\"highway\":\"unclassified\",\"oneway\":\"yes\"}","clippedToPort":false,"lengthM":275.1}},{"type":"Feature","id":"osm-way-395340257","geometry":{"type":"LineString","coordinates":[[-44.3688036,-2.5768561],[-44.3687837,-2.5766226],[-44.3687481,-2.5764067],[-44.3686619,-2.5761543],[-44.3685874,-2.5759959],[-44.3685772,-2.5759742],[-44.3685007,-2.5758389],[-44.3683335,-2.5756047],[-44.3682875,-2.5755401],[-44.3680913,-2.575286],[-44.367932,-2.5750796],[-44.3678986,-2.5750364],[-44.3678218,-2.5749469],[-44.3677221,-2.5748308]]},"properties":{"highway":"unclassified","oneway":"yes","id":"osm-way-395340257","osmType":"way","osmId":"395340257","name":"Via local","named":false,"category":"road","kind":"unclassified","source":"OpenStreetMap","sourceUrl":"https://www.openstreetmap.org/way/395340257","tags":"{\"highway\":\"unclassified\",\"oneway\":\"yes\"}","clippedToPort":false,"lengthM":261.1}},{"type":"Feature","id":"osm-way-395340260","geometry":{"type":"LineString","coordinates":[[-44.3688036,-2.5768561],[-44.3687918,-2.5769326],[-44.3686174,-2.5780588],[-44.3686159,-2.5781167],[-44.3685054,-2.5786972],[-44.3684289,-2.5789933]]},"properties":{"highway":"unclassified","id":"osm-way-395340260","osmType":"way","osmId":"395340260","name":"Via local","named":false,"category":"road","kind":"unclassified","source":"OpenStreetMap","sourceUrl":"https://www.openstreetmap.org/way/395340260","tags":"{\"highway\":\"unclassified\"}","clippedToPort":false,"lengthM":241.5}},{"type":"Feature","id":"osm-way-430596899","geometry":{"type":"LineString","coordinates":[[-44.3628196,-2.5674025],[-44.362779803250234,-2.567371943527514]]},"properties":{"highway":"tertiary_link","oneway":"yes","id":"osm-way-430596899","osmType":"way","osmId":"430596899","name":"Via mapeada","named":false,"category":"road","kind":"tertiary_link","source":"OpenStreetMap","sourceUrl":"https://www.openstreetmap.org/way/430596899","tags":"{\"highway\":\"tertiary_link\",\"oneway\":\"yes\"}","clippedToPort":true,"lengthM":5.6}},{"type":"Feature","id":"osm-way-430596905","geometry":{"type":"LineString","coordinates":[[-44.36545401442816,-2.5668229540136953],[-44.365498,-2.566886]]},"properties":{"highway":"service","oneway":"yes","id":"osm-way-430596905","osmType":"way","osmId":"430596905","name":"Via de serviço","named":false,"category":"road","kind":"service","source":"OpenStreetMap","sourceUrl":"https://www.openstreetmap.org/way/430596905","tags":"{\"highway\":\"service\",\"oneway\":\"yes\"}","clippedToPort":true,"lengthM":8.5}},{"type":"Feature","id":"osm-way-46425197","geometry":{"type":"LineString","coordinates":[[-44.36521579094468,-2.566871858975074],[-44.3652673,-2.566929],[-44.3653549,-2.5670532],[-44.365392,-2.5671157],[-44.365449,-2.5672457],[-44.3655074,-2.5674212],[-44.36551,-2.567431],[-44.3656998,-2.5683719],[-44.3659741,-2.5696532],[-44.3663026,-2.5711122],[-44.3665893,-2.5722795],[-44.3668854,-2.5735515],[-44.3669712,-2.5737931],[-44.3670117,-2.5738716],[-44.3670474,-2.5739382],[-44.3671137,-2.5740423]]},"properties":{"highway":"tertiary","oneway":"yes","source":"OpenStreetMap","id":"osm-way-46425197","osmType":"way","osmId":"46425197","name":"Via coletora","named":false,"category":"road","kind":"tertiary","sourceUrl":"https://www.openstreetmap.org/way/46425197","tags":"{\"highway\":\"tertiary\",\"oneway\":\"yes\",\"source\":\"Yahoo hires\"}","clippedToPort":true,"lengthM":829.0}},{"type":"Feature","id":"osm-way-46425213","geometry":{"type":"LineString","coordinates":[[-44.3668027,-2.5741001],[-44.3668163,-2.5740296],[-44.3668235,-2.573959],[-44.3668217,-2.5738559],[-44.366823,-2.5738386],[-44.3668071,-2.5737228],[-44.3661712,-2.5710077],[-44.3657622,-2.5691629],[-44.3656071,-2.5683903],[-44.3654564,-2.5676396],[-44.3653942,-2.5673888],[-44.3653382,-2.5672536],[-44.3652886,-2.5671575],[-44.3652055,-2.5670402],[-44.3651383,-2.5669527],[-44.36508442676248,-2.566898826762478]]},"properties":{"highway":"tertiary","oneway":"yes","source":"OpenStreetMap","id":"osm-way-46425213","osmType":"way","osmId":"46425213","name":"Via coletora","named":false,"category":"road","kind":"tertiary","sourceUrl":"https://www.openstreetmap.org/way/46425213","tags":"{\"highway\":\"tertiary\",\"oneway\":\"yes\",\"source\":\"Yahoo hires\"}","clippedToPort":true,"lengthM":828.9}},{"type":"Feature","id":"osm-way-46425215","geometry":{"type":"LineString","coordinates":[[-44.3628196,-2.5674025],[-44.36279809403028,-2.5673681886084827]]},"properties":{"highway":"tertiary","oneway":"yes","source":"OpenStreetMap","id":"osm-way-46425215","osmType":"way","osmId":"46425215","name":"Via coletora","named":false,"category":"road","kind":"tertiary","sourceUrl":"https://www.openstreetmap.org/way/46425215","tags":"{\"highway\":\"tertiary\",\"oneway\":\"yes\",\"source\":\"Yahoo hires\"}","clippedToPort":true,"lengthM":4.5}},{"type":"Feature","id":"osm-way-46425983","geometry":{"type":"LineString","coordinates":[[-44.3666697,-2.5778369],[-44.3659375,-2.5765748],[-44.3656344,-2.5761595],[-44.3637155,-2.5740427],[-44.3634484,-2.5737472],[-44.3632106,-2.573484],[-44.3627889,-2.5730256],[-44.361720161426426,-2.5718836978413444]]},"properties":{"electrified":"no","gauge":"1000;1600","name":"Transnordestina","railway":"rail","service":"spur","source":"OpenStreetMap","id":"osm-way-46425983","osmType":"way","osmId":"46425983","named":true,"category":"railway","kind":"rail","sourceUrl":"https://www.openstreetmap.org/way/46425983","tags":"{\"electrified\":\"no\",\"gauge\":\"1000;1600\",\"name\":\"Transnordestina\",\"railway\":\"rail\",\"service\":\"spur\",\"source\":\"Yahoo hires\"}","clippedToPort":true,"lengthM":863.7}},{"type":"Feature","id":"osm-way-46425984","geometry":{"type":"LineString","coordinates":[[-44.3618127,-2.5758763],[-44.3629043,-2.5748688],[-44.3630541,-2.5747286],[-44.3632633,-2.5744767],[-44.3633344,-2.5743575],[-44.363368,-2.5742382],[-44.3634055,-2.5740426],[-44.3633733,-2.5738095],[-44.3633268,-2.5736655],[-44.3632106,-2.573484]]},"properties":{"electrified":"no","gauge":"1000;1600","name":"Transnordestina","railway":"rail","service":"spur","source":"OpenStreetMap","id":"osm-way-46425984","osmType":"way","osmId":"46425984","named":true,"category":"railway","kind":"rail","sourceUrl":"https://www.openstreetmap.org/way/46425984","tags":"{\"electrified\":\"no\",\"gauge\":\"1000;1600\",\"name\":\"Transnordestina\",\"railway\":\"rail\",\"service\":\"spur\",\"source\":\"Yahoo hires\"}","clippedToPort":false,"lengthM":342.6}},{"type":"Feature","id":"osm-way-46426003","geometry":{"type":"Polygon","coordinates":[[[-44.3691568,-2.5794346],[-44.3685746,-2.5793425],[-44.3689191,-2.5771692],[-44.3691236,-2.5772015],[-44.3691627,-2.5769544],[-44.36954,-2.5770141],[-44.3691568,-2.5794346]]]},"properties":{"building":"yes","id":"osm-way-46426003","osmType":"way","osmId":"46426003","name":"Edificação","named":false,"category":"building","kind":"yes","source":"OpenStreetMap","sourceUrl":"https://www.openstreetmap.org/way/46426003","tags":"{\"building\":\"yes\"}","clippedToPort":false,"areaM2":17195.4}},{"type":"Feature","id":"osm-way-46426004","geometry":{"type":"Polygon","coordinates":[[[-44.3667395,-2.576063],[-44.3667717,-2.5758272],[-44.3672545,-2.5758594],[-44.367233,-2.5761059],[-44.3667395,-2.576063]]]},"properties":{"building":"yes","id":"osm-way-46426004","osmType":"way","osmId":"46426004","name":"Edificação","named":false,"category":"building","kind":"yes","source":"OpenStreetMap","sourceUrl":"https://www.openstreetmap.org/way/46426004","tags":"{\"building\":\"yes\"}","clippedToPort":false,"areaM2":1466.5}},{"type":"Feature","id":"osm-way-579333288","geometry":{"type":"Polygon","coordinates":[[[-44.3644213,-2.5723236],[-44.3644657,-2.5724915],[-44.3643956,-2.5725102],[-44.3643886,-2.5724939],[-44.3643232,-2.5725125],[-44.3642952,-2.5723609],[-44.3644213,-2.5723236]]]},"properties":{"amenity":"restaurant","building":"yes","id":"osm-way-579333288","osmType":"way","osmId":"579333288","name":"Edificação","named":false,"category":"building","kind":"yes","source":"OpenStreetMap","sourceUrl":"https://www.openstreetmap.org/way/579333288","tags":"{\"amenity\":\"restaurant\",\"building\":\"yes\"}","clippedToPort":false,"areaM2":278.0}},{"type":"Feature","id":"osm-way-655467282","geometry":{"type":"LineString","coordinates":[[-44.365745,-2.575273],[-44.3657822,-2.5753216],[-44.3658276,-2.575381],[-44.3659955,-2.5755689],[-44.3665887,-2.5762027],[-44.3666927,-2.5763093],[-44.3667966,-2.5764159],[-44.3668925,-2.5765235]]},"properties":{"highway":"unclassified","oneway":"yes","id":"osm-way-655467282","osmType":"way","osmId":"655467282","name":"Via local","named":false,"category":"road","kind":"unclassified","source":"OpenStreetMap","sourceUrl":"https://www.openstreetmap.org/way/655467282","tags":"{\"highway\":\"unclassified\",\"oneway\":\"yes\"}","clippedToPort":false,"lengthM":188.7}},{"type":"Feature","id":"osm-way-655467293","geometry":{"type":"LineString","coordinates":[[-44.367262,-2.5769038],[-44.3671271,-2.5768854],[-44.3670475,-2.5768536],[-44.3669962,-2.5768165],[-44.3668706,-2.5766803],[-44.3668228,-2.5766079],[-44.3667943,-2.576554],[-44.3667747,-2.5765056],[-44.3667688,-2.5764848],[-44.366766,-2.5764587]]},"properties":{"highway":"service","oneway":"yes","id":"osm-way-655467293","osmType":"way","osmId":"655467293","name":"Via de serviço","named":false,"category":"road","kind":"service","source":"OpenStreetMap","sourceUrl":"https://www.openstreetmap.org/way/655467293","tags":"{\"highway\":\"service\",\"oneway\":\"yes\"}","clippedToPort":false,"lengthM":79.8}},{"type":"Feature","id":"osm-way-737666944","geometry":{"type":"MultiLineString","coordinates":[[[-44.3695629,-2.5718679],[-44.3692946,-2.5720554]],[[-44.3692946,-2.5720554],[-44.3691981,-2.5721787]],[[-44.3691981,-2.5721787],[-44.3691069,-2.5723877]],[[-44.3691069,-2.5723877],[-44.3689889,-2.572661]],[[-44.3689889,-2.572661],[-44.3688279,-2.5731755]],[[-44.3688279,-2.5731755],[-44.3687153,-2.5735559]],[[-44.3687153,-2.5735559],[-44.368667,-2.5737167]],[[-44.368667,-2.5737167],[-44.3686134,-2.5738775]],[[-44.3686134,-2.5738775],[-44.3686134,-2.5740275]],[[-44.3686134,-2.5740275],[-44.3686402,-2.5741401]],[[-44.3686402,-2.5741401],[-44.3687207,-2.5742633]],[[-44.3687207,-2.5742633],[-44.369064,-2.5747215]],[[-44.369064,-2.5747215],[-44.3691659,-2.5748689]],[[-44.3691659,-2.5748689],[-44.3692142,-2.5749814]],[[-44.3692142,-2.5749814],[-44.3692812,-2.5751985]],[[-44.3692812,-2.5751985],[-44.3693429,-2.5753298]],[[-44.3693429,-2.5753298],[-44.3694904,-2.5755334]],[[-44.3694904,-2.5755334],[-44.3697023,-2.5757692]],[[-44.3697023,-2.5757692],[-44.3697318,-2.5758335]],[[-44.3697318,-2.5758335],[-44.36978,-2.5758845]],[[-44.36978,-2.5758845],[-44.3696705,-2.5760102]],[[-44.3696705,-2.5760102],[-44.3694634,-2.5758528]],[[-44.3694634,-2.5758528],[-44.3693322,-2.5757076]],[[-44.3693322,-2.5757076],[-44.3693027,-2.5757076]],[[-44.3693027,-2.5757076],[-44.3692651,-2.5757344]],[[-44.3692651,-2.5757344],[-44.369241,-2.5757907]],[[-44.369241,-2.5757907],[-44.3692464,-2.575855]],[[-44.3692464,-2.575855],[-44.3692893,-2.575938]],[[-44.3692893,-2.575938],[-44.3693644,-2.5760211]],[[-44.3693644,-2.5760211],[-44.3694609,-2.576147]],[[-44.3694609,-2.576147],[-44.3696433,-2.576348]],[[-44.3696433,-2.576348],[-44.3697104,-2.5763801]],[[-44.3697104,-2.5763801],[-44.369764,-2.576356]],[[-44.369764,-2.576356],[-44.3721683,-2.5731156]],[[-44.3721683,-2.5731156],[-44.37396,-2.5722045]],[[-44.37396,-2.5722045],[-44.3739171,-2.5720866]],[[-44.3739171,-2.5720866],[-44.3744642,-2.5718187]],[[-44.3744642,-2.5718187],[-44.3746895,-2.5722903]],[[-44.3746895,-2.5722903],[-44.3741102,-2.5725582]],[[-44.3741102,-2.5725582],[-44.3740136,-2.5723546]],[[-44.3740136,-2.5723546],[-44.3724043,-2.5731477]],[[-44.3724043,-2.5731477],[-44.3723936,-2.5732227]],[[-44.3723936,-2.5732227],[-44.3699893,-2.5764712]],[[-44.3699893,-2.5764712],[-44.3699169,-2.5765918]],[[-44.3699169,-2.5765918],[-44.3698713,-2.5767794]],[[-44.3698713,-2.5767794],[-44.3683829,-2.5858312]],[[-44.3683829,-2.5858312],[-44.3680045,-2.5857557]],[[-44.3680045,-2.5857557],[-44.3683371,-2.5837702]],[[-44.3683371,-2.5837702],[-44.3686241,-2.5820124]],[[-44.3686241,-2.5820124],[-44.3686,-2.5819749]],[[-44.3686,-2.5819749],[-44.3685731,-2.5819562]],[[-44.3685731,-2.5819562],[-44.3685114,-2.5819374]],[[-44.3685114,-2.5819374],[-44.368262,-2.5818999]],[[-44.368262,-2.5818999],[-44.368211,-2.5819106]],[[-44.368211,-2.5819106],[-44.3681654,-2.5819669]],[[-44.3681654,-2.5819669],[-44.3681172,-2.5819856]],[[-44.3681172,-2.5819856],[-44.3680179,-2.5819696]],[[-44.3680179,-2.5819696],[-44.3678338,-2.581915]],[[-44.3678338,-2.581915],[-44.3676317,-2.581849]]]},"properties":{"natural":"coastline","id":"osm-way-737666944","osmType":"way","osmId":"737666944","name":"Linha de costa","named":false,"category":"water","kind":"coastline","source":"OpenStreetMap","sourceUrl":"https://www.openstreetmap.org/way/737666944","tags":"{\"natural\":\"coastline\"}","clippedToPort":false,"lengthM":3899.8}},{"type":"Feature","id":"osm-way-747985275","geometry":{"type":"LineString","coordinates":[[-44.367518,-2.5772033],[-44.3673102,-2.5774018],[-44.3671726,-2.5775332],[-44.3671406,-2.5775618],[-44.3669679,-2.577716]]},"properties":{"highway":"unclassified","id":"osm-way-747985275","osmType":"way","osmId":"747985275","name":"Via local","named":false,"category":"road","kind":"unclassified","source":"OpenStreetMap","sourceUrl":"https://www.openstreetmap.org/way/747985275","tags":"{\"highway\":\"unclassified\"}","clippedToPort":false,"lengthM":83.6}},{"type":"Feature","id":"osm-way-747985276","geometry":{"type":"LineString","coordinates":[[-44.367518,-2.5772033],[-44.3678447,-2.5775913],[-44.3679012,-2.57761],[-44.3679388,-2.577594],[-44.3679442,-2.5775645],[-44.367924,-2.5774908],[-44.3678342,-2.5773032]]},"properties":{"highway":"service","oneway":"no","id":"osm-way-747985276","osmType":"way","osmId":"747985276","name":"Via de serviço","named":false,"category":"road","kind":"service","source":"OpenStreetMap","sourceUrl":"https://www.openstreetmap.org/way/747985276","tags":"{\"highway\":\"service\",\"oneway\":\"no\"}","clippedToPort":false,"lengthM":102.5}},{"type":"Feature","id":"osm-way-763929002","geometry":{"type":"LineString","coordinates":[[-44.3673102,-2.5774018],[-44.3672079,-2.5772831],[-44.3671911,-2.5772654],[-44.367164,-2.5772557],[-44.3671459,-2.5772573],[-44.3671264,-2.5772671],[-44.3671086,-2.5772808],[-44.3669356,-2.5774359]]},"properties":{"highway":"service","id":"osm-way-763929002","osmType":"way","osmId":"763929002","name":"Via de serviço","named":false,"category":"road","kind":"service","source":"OpenStreetMap","sourceUrl":"https://www.openstreetmap.org/way/763929002","tags":"{\"highway\":\"service\"}","clippedToPort":false,"lengthM":56.1}},{"type":"Feature","id":"osm-way-768268365","geometry":{"type":"LineString","coordinates":[[-44.3672741,-2.5742311],[-44.3672866,-2.574298],[-44.3672764,-2.5743652],[-44.3672448,-2.5744253],[-44.3671952,-2.5744718],[-44.3671331,-2.5744995],[-44.3670661,-2.574503]]},"properties":{"highway":"tertiary","junction":"roundabout","oneway":"yes","id":"osm-way-768268365","osmType":"way","osmId":"768268365","name":"Via coletora","named":false,"category":"road","kind":"tertiary","source":"OpenStreetMap","sourceUrl":"https://www.openstreetmap.org/way/768268365","tags":"{\"highway\":\"tertiary\",\"junction\":\"roundabout\",\"oneway\":\"yes\"}","clippedToPort":false,"lengthM":45.2}},{"type":"Feature","id":"osm-way-773084201","geometry":{"type":"LineString","coordinates":[[-44.3684289,-2.5789933],[-44.3683331,-2.5791018],[-44.3681869,-2.5790007],[-44.3681202,-2.5789528],[-44.3679737,-2.5788212],[-44.3678898,-2.5787368],[-44.3677162,-2.5785532],[-44.3675975,-2.578432],[-44.3673977,-2.578221],[-44.367175,-2.5779745],[-44.36713,-2.5779183],[-44.3669679,-2.577716]]},"properties":{"highway":"unclassified","source":"OpenStreetMap","id":"osm-way-773084201","osmType":"way","osmId":"773084201","name":"Via local","named":false,"category":"road","kind":"unclassified","sourceUrl":"https://www.openstreetmap.org/way/773084201","tags":"{\"highway\":\"unclassified\",\"source\":\"Yahoo hires\"}","clippedToPort":false,"lengthM":233.0}},{"type":"Feature","id":"osm-way-775843107","geometry":{"type":"LineString","coordinates":[[-44.3681831,-2.5752127],[-44.3680913,-2.575286]]},"properties":{"highway":"service","id":"osm-way-775843107","osmType":"way","osmId":"775843107","name":"Via de serviço","named":false,"category":"road","kind":"service","source":"OpenStreetMap","sourceUrl":"https://www.openstreetmap.org/way/775843107","tags":"{\"highway\":\"service\"}","clippedToPort":false,"lengthM":13.1}},{"type":"Feature","id":"osm-way-775843108","geometry":{"type":"LineString","coordinates":[[-44.3684348,-2.5755416],[-44.3683335,-2.5756047]]},"properties":{"highway":"service","id":"osm-way-775843108","osmType":"way","osmId":"775843108","name":"Via de serviço","named":false,"category":"road","kind":"service","source":"OpenStreetMap","sourceUrl":"https://www.openstreetmap.org/way/775843108","tags":"{\"highway\":\"service\"}","clippedToPort":false,"lengthM":13.3}},{"type":"Feature","id":"osm-way-775843109","geometry":{"type":"LineString","coordinates":[[-44.3686866,-2.5759567],[-44.3685874,-2.5759959]]},"properties":{"highway":"service","id":"osm-way-775843109","osmType":"way","osmId":"775843109","name":"Via de serviço","named":false,"category":"road","kind":"service","source":"OpenStreetMap","sourceUrl":"https://www.openstreetmap.org/way/775843109","tags":"{\"highway\":\"service\"}","clippedToPort":false,"lengthM":11.9}},{"type":"Feature","id":"osm-way-775847001","geometry":{"type":"LineString","coordinates":[[-44.3640965,-2.5732612],[-44.3640342,-2.5731735],[-44.3640201,-2.573148],[-44.3640154,-2.5731071],[-44.3640161,-2.5730723],[-44.3640281,-2.5730274],[-44.3640405,-2.5729849]]},"properties":{"highway":"service","id":"osm-way-775847001","osmType":"way","osmId":"775847001","name":"Via de serviço","named":false,"category":"road","kind":"service","source":"OpenStreetMap","sourceUrl":"https://www.openstreetmap.org/way/775847001","tags":"{\"highway\":\"service\"}","clippedToPort":false,"lengthM":33.7}},{"type":"Feature","id":"osm-way-775847002","geometry":{"type":"LineString","coordinates":[[-44.3640405,-2.5729849],[-44.3640826,-2.5729356],[-44.3641092,-2.5728926],[-44.3641306,-2.5728267],[-44.3641413,-2.5727519],[-44.3641505,-2.5726043]]},"properties":{"highway":"service","oneway":"yes","id":"osm-way-775847002","osmType":"way","osmId":"775847002","name":"Via de serviço","named":false,"category":"road","kind":"service","source":"OpenStreetMap","sourceUrl":"https://www.openstreetmap.org/way/775847002","tags":"{\"highway\":\"service\",\"oneway\":\"yes\"}","clippedToPort":false,"lengthM":45.4}},{"type":"Feature","id":"osm-way-775847003","geometry":{"type":"LineString","coordinates":[[-44.3643297,-2.5732722],[-44.364278,-2.5732934],[-44.3642058,-2.5733001],[-44.3641462,-2.5732829],[-44.3640965,-2.5732612],[-44.3639964,-2.5731724],[-44.3639399,-2.5731317],[-44.3638741,-2.5730937],[-44.3637874,-2.5730535]]},"properties":{"highway":"service","oneway":"yes","id":"osm-way-775847003","osmType":"way","osmId":"775847003","name":"Via de serviço","named":false,"category":"road","kind":"service","source":"OpenStreetMap","sourceUrl":"https://www.openstreetmap.org/way/775847003","tags":"{\"highway\":\"service\",\"oneway\":\"yes\"}","clippedToPort":false,"lengthM":68.8}},{"type":"Feature","id":"osm-way-775847004","geometry":{"type":"LineString","coordinates":[[-44.3637874,-2.5730535],[-44.363658,-2.5730328],[-44.3635152,-2.5729979],[-44.36331,-2.5729477],[-44.3632154,-2.5729256],[-44.3631148,-2.5729102],[-44.3630122,-2.5729243],[-44.3629398,-2.5729423],[-44.3628808,-2.5729772],[-44.3627889,-2.5730256],[-44.3627554,-2.5730401],[-44.3627038,-2.5730455],[-44.3626488,-2.5730395],[-44.3626079,-2.573016],[-44.3624993,-2.5729062],[-44.3623712,-2.5727588],[-44.3623068,-2.5727039],[-44.3622518,-2.5726885],[-44.3621828,-2.5726844],[-44.3621264,-2.5726858],[-44.3620808,-2.5727052],[-44.3620145,-2.5727575],[-44.3618685,-2.5729031],[-44.3617975,-2.5729656],[-44.3617257,-2.5730415],[-44.361659,-2.5731268],[-44.3615812,-2.5732483],[-44.36155,-2.5732973],[-44.3614942,-2.5733589],[-44.3614106,-2.5734028],[-44.361283,-2.5734677],[-44.3611791,-2.5735378],[-44.3609408,-2.5737488],[-44.3603174,-2.5743312],[-44.3602151,-2.5744223],[-44.3601906,-2.5744594],[-44.3601856,-2.5745033],[-44.3601551,-2.5752435],[-44.3601594,-2.5752849],[-44.3601805,-2.5753237],[-44.3605167,-2.5756908],[-44.3605269,-2.5757195],[-44.3605243,-2.5757516],[-44.3604821,-2.5758098],[-44.3603174,-2.5759575],[-44.3603061,-2.575986],[-44.360305,-2.5760078],[-44.3603247,-2.5760711],[-44.360478,-2.5762327]]},"properties":{"highway":"service","id":"osm-way-775847004","osmType":"way","osmId":"775847004","name":"Via de serviço","named":false,"category":"road","kind":"service","source":"OpenStreetMap","sourceUrl":"https://www.openstreetmap.org/way/775847004","tags":"{\"highway\":\"service\"}","clippedToPort":false,"lengthM":729.2}},{"type":"Feature","id":"osm-way-775852292","geometry":{"type":"LineString","coordinates":[[-44.3644156,-2.573588],[-44.3643587,-2.5735271],[-44.3643158,-2.5734776],[-44.3642427,-2.5734012],[-44.364179,-2.5733302],[-44.3640965,-2.5732612]]},"properties":{"highway":"service","oneway":"yes","id":"osm-way-775852292","osmType":"way","osmId":"775852292","name":"Via de serviço","named":false,"category":"road","kind":"service","source":"OpenStreetMap","sourceUrl":"https://www.openstreetmap.org/way/775852292","tags":"{\"highway\":\"service\",\"oneway\":\"yes\"}","clippedToPort":false,"lengthM":50.8}},{"type":"Feature","id":"osm-way-775852293","geometry":{"type":"LineString","coordinates":[[-44.3640405,-2.5729849],[-44.3641113,-2.5729477],[-44.3641569,-2.5729378],[-44.3641974,-2.5729348],[-44.364238,-2.5729384]]},"properties":{"highway":"service","oneway":"yes","id":"osm-way-775852293","osmType":"way","osmId":"775852293","name":"Via de serviço","named":false,"category":"road","kind":"service","source":"OpenStreetMap","sourceUrl":"https://www.openstreetmap.org/way/775852293","tags":"{\"highway\":\"service\",\"oneway\":\"yes\"}","clippedToPort":false,"lengthM":23.1}},{"type":"Feature","id":"osm-way-775852295","geometry":{"type":"LineString","coordinates":[[-44.3655237,-2.5669436],[-44.3655724,-2.5670662],[-44.3655885,-2.567099],[-44.3655919,-2.5671312],[-44.3655952,-2.5671573],[-44.3655898,-2.5671908],[-44.3655845,-2.5672256],[-44.3655684,-2.5672705],[-44.3655543,-2.5673013],[-44.3655375,-2.5673355],[-44.3655168,-2.5673924],[-44.36551,-2.567431]]},"properties":{"highway":"service","oneway":"yes","id":"osm-way-775852295","osmType":"way","osmId":"775852295","name":"Via de serviço","named":false,"category":"road","kind":"service","source":"OpenStreetMap","sourceUrl":"https://www.openstreetmap.org/way/775852295","tags":"{\"highway\":\"service\",\"oneway\":\"yes\"}","clippedToPort":false,"lengthM":57.3}},{"type":"Feature","id":"osm-way-775852296","geometry":{"type":"LineString","coordinates":[[-44.3669712,-2.5737931],[-44.3668217,-2.5738559]]},"properties":{"highway":"service","id":"osm-way-775852296","osmType":"way","osmId":"775852296","name":"Via de serviço","named":false,"category":"road","kind":"service","source":"OpenStreetMap","sourceUrl":"https://www.openstreetmap.org/way/775852296","tags":"{\"highway\":\"service\"}","clippedToPort":false,"lengthM":18.0}},{"type":"Feature","id":"osm-way-775852297","geometry":{"type":"LineString","coordinates":[[-44.3656071,-2.5683903],[-44.3656998,-2.5683719]]},"properties":{"highway":"tertiary_link","id":"osm-way-775852297","osmType":"way","osmId":"775852297","name":"Via mapeada","named":false,"category":"road","kind":"tertiary_link","source":"OpenStreetMap","sourceUrl":"https://www.openstreetmap.org/way/775852297","tags":"{\"highway\":\"tertiary_link\"}","clippedToPort":false,"lengthM":10.5}},{"type":"Feature","id":"osm-way-775852298","geometry":{"type":"LineString","coordinates":[[-44.3672277,-2.5745327],[-44.3671345,-2.5746194],[-44.3670854,-2.574644],[-44.3670543,-2.5746686],[-44.3670301,-2.5747229],[-44.3670315,-2.5747765],[-44.3670309,-2.5748066],[-44.3670402,-2.5748368],[-44.367063,-2.5748682],[-44.3671679,-2.5749838],[-44.3672253,-2.5750471],[-44.3672448,-2.5750538],[-44.3672709,-2.5750511],[-44.3673031,-2.5750404],[-44.3674292,-2.5749587],[-44.3675759,-2.5748403],[-44.3676555,-2.5747675]]},"properties":{"highway":"service","id":"osm-way-775852298","osmType":"way","osmId":"775852298","name":"Via de serviço","named":false,"category":"road","kind":"service","source":"OpenStreetMap","sourceUrl":"https://www.openstreetmap.org/way/775852298","tags":"{\"highway\":\"service\"}","clippedToPort":false,"lengthM":133.9}},{"type":"Feature","id":"osm-way-775852299","geometry":{"type":"LineString","coordinates":[[-44.367932,-2.5750796],[-44.3680085,-2.5750042]]},"properties":{"highway":"service","id":"osm-way-775852299","osmType":"way","osmId":"775852299","name":"Via de serviço","named":false,"category":"road","kind":"service","source":"OpenStreetMap","sourceUrl":"https://www.openstreetmap.org/way/775852299","tags":"{\"highway\":\"service\"}","clippedToPort":false,"lengthM":11.9}},{"type":"Feature","id":"osm-way-775858404","geometry":{"type":"LineString","coordinates":[[-44.3637874,-2.5730535],[-44.3639001,-2.5730535],[-44.3639363,-2.5730448],[-44.3639731,-2.5730247],[-44.3640187,-2.5729953],[-44.3640405,-2.5729849]]},"properties":{"highway":"service","oneway":"yes","id":"osm-way-775858404","osmType":"way","osmId":"775858404","name":"Via de serviço","named":false,"category":"road","kind":"service","source":"OpenStreetMap","sourceUrl":"https://www.openstreetmap.org/way/775858404","tags":"{\"highway\":\"service\",\"oneway\":\"yes\"}","clippedToPort":false,"lengthM":30.0}},{"type":"Feature","id":"osm-way-775858406","geometry":{"type":"LineString","coordinates":[[-44.3631965,-2.56806],[-44.3630264,-2.5680771]]},"properties":{"highway":"service","id":"osm-way-775858406","osmType":"way","osmId":"775858406","name":"Via de serviço","named":false,"category":"road","kind":"service","source":"OpenStreetMap","sourceUrl":"https://www.openstreetmap.org/way/775858406","tags":"{\"highway\":\"service\"}","clippedToPort":false,"lengthM":19.0}},{"type":"Feature","id":"osm-way-775858407","geometry":{"type":"LineString","coordinates":[[-44.363445,-2.56903],[-44.3632683,-2.5690291]]},"properties":{"highway":"service","id":"osm-way-775858407","osmType":"way","osmId":"775858407","name":"Via de serviço","named":false,"category":"road","kind":"service","source":"OpenStreetMap","sourceUrl":"https://www.openstreetmap.org/way/775858407","tags":"{\"highway\":\"service\"}","clippedToPort":false,"lengthM":19.6}},{"type":"Feature","id":"osm-way-775858408","geometry":{"type":"LineString","coordinates":[[-44.3636955,-2.5700311],[-44.3635257,-2.5700876]]},"properties":{"highway":"service","id":"osm-way-775858408","osmType":"way","osmId":"775858408","name":"Via de serviço","named":false,"category":"road","kind":"service","source":"OpenStreetMap","sourceUrl":"https://www.openstreetmap.org/way/775858408","tags":"{\"highway\":\"service\"}","clippedToPort":false,"lengthM":19.9}},{"type":"Feature","id":"osm-way-775858409","geometry":{"type":"LineString","coordinates":[[-44.363040172173946,-2.5673184923229035],[-44.3631363,-2.5678097],[-44.3631965,-2.56806],[-44.3632878,-2.5684394],[-44.363445,-2.56903],[-44.3635118,-2.5692808],[-44.3636955,-2.5700311],[-44.3637881,-2.5704089],[-44.3638967,-2.5709287]]},"properties":{"highway":"service","id":"osm-way-775858409","osmType":"way","osmId":"775858409","name":"Via de serviço","named":false,"category":"road","kind":"service","source":"OpenStreetMap","sourceUrl":"https://www.openstreetmap.org/way/775858409","tags":"{\"highway\":\"service\"}","clippedToPort":true,"lengthM":412.7}},{"type":"Feature","id":"osm-way-777653761","geometry":{"type":"LineString","coordinates":[[-44.3669679,-2.577716],[-44.366888,-2.5778124],[-44.3666473,-2.5780602],[-44.3665159,-2.5781848],[-44.36617273950528,-2.5784800456051924]]},"properties":{"highway":"service","id":"osm-way-777653761","osmType":"way","osmId":"777653761","name":"Via de serviço","named":false,"category":"road","kind":"service","source":"OpenStreetMap","sourceUrl":"https://www.openstreetmap.org/way/777653761","tags":"{\"highway\":\"service\"}","clippedToPort":true,"lengthM":122.7}},{"type":"Feature","id":"osm-way-777653766","geometry":{"type":"LineString","coordinates":[[-44.366299,-2.574389],[-44.3661994,-2.57427],[-44.3661357,-2.5741729],[-44.3660988,-2.5740905],[-44.3660572,-2.5740329],[-44.3659835,-2.5739793],[-44.3658467,-2.5738962],[-44.3656321,-2.5738132],[-44.3655516,-2.5737717],[-44.3655127,-2.5737355],[-44.3654899,-2.5736953],[-44.3654805,-2.5736618],[-44.3654805,-2.5736095],[-44.3655007,-2.5729772],[-44.365498,-2.5728365],[-44.3654792,-2.5724131]]},"properties":{"highway":"service","id":"osm-way-777653766","osmType":"way","osmId":"777653766","name":"Via de serviço","named":false,"category":"road","kind":"service","source":"OpenStreetMap","sourceUrl":"https://www.openstreetmap.org/way/777653766","tags":"{\"highway\":\"service\"}","clippedToPort":false,"lengthM":265.5}},{"type":"Feature","id":"osm-way-777653767","geometry":{"type":"LineString","coordinates":[[-44.3662969,-2.5748207],[-44.3662597,-2.5747751],[-44.3662061,-2.5746639],[-44.366194,-2.5746157],[-44.3662047,-2.5745447],[-44.366253,-2.5744469],[-44.366299,-2.574389],[-44.3663254,-2.5743558],[-44.3664368,-2.574199],[-44.366481,-2.5741267],[-44.3665414,-2.5739927],[-44.3665762,-2.5738842],[-44.3665802,-2.5737971],[-44.3665628,-2.5737207],[-44.3664756,-2.573225],[-44.366422,-2.5728673],[-44.3663952,-2.5727776],[-44.366359,-2.5727307],[-44.3663201,-2.5727065],[-44.3662852,-2.5727025]]},"properties":{"highway":"service","id":"osm-way-777653767","osmType":"way","osmId":"777653767","name":"Via de serviço","named":false,"category":"road","kind":"service","source":"OpenStreetMap","sourceUrl":"https://www.openstreetmap.org/way/777653767","tags":"{\"highway\":\"service\"}","clippedToPort":false,"lengthM":259.2}},{"type":"Feature","id":"osm-way-777653768","geometry":{"type":"LineString","coordinates":[[-44.3675759,-2.5748403],[-44.3674419,-2.5747483],[-44.3672957,-2.574674],[-44.3672213,-2.5746478],[-44.3671345,-2.5746194]]},"properties":{"highway":"service","id":"osm-way-777653768","osmType":"way","osmId":"777653768","name":"Via de serviço","named":false,"category":"road","kind":"service","source":"OpenStreetMap","sourceUrl":"https://www.openstreetmap.org/way/777653768","tags":"{\"highway\":\"service\"}","clippedToPort":false,"lengthM":55.2}},{"type":"Feature","id":"osm-way-777653769","geometry":{"type":"MultiLineString","coordinates":[[[-44.3669712,-2.5737931],[-44.3670034,-2.5737917],[-44.3670563,-2.5737844],[-44.3670855,-2.573779],[-44.3671186,-2.57377],[-44.3671744,-2.5737114],[-44.3672106,-2.5736551],[-44.367228,-2.5736069],[-44.3672253,-2.5735613],[-44.3670912,-2.5731299],[-44.3670389,-2.5729611],[-44.366945,-2.572657],[-44.3669356,-2.5725953],[-44.3669397,-2.572527],[-44.3669598,-2.5724614],[-44.3670268,-2.5722687],[-44.3670805,-2.5721144],[-44.3672106,-2.571833],[-44.367397,-2.5714418],[-44.3674654,-2.5712422],[-44.3676035,-2.5707532],[-44.3676558,-2.5705348],[-44.3677068,-2.57037],[-44.3677443,-2.5702977],[-44.367806,-2.5702159],[-44.3678328,-2.5701476],[-44.3678382,-2.5700699],[-44.3678007,-2.5698823],[-44.3677644,-2.5697778],[-44.367625,-2.569538],[-44.3675351,-2.5693853],[-44.367523,-2.5693565],[-44.3675194,-2.5693337],[-44.3675217,-2.5693089],[-44.3675465,-2.5692664],[-44.3675672,-2.5692562],[-44.3675892,-2.5692454],[-44.3676176,-2.5692406],[-44.3676417,-2.5692416],[-44.36765387090134,-2.5692451258321443]],[[-44.36789575601649,-2.5696027460993047],[-44.3680011,-2.5697825],[-44.36803147166628,-2.5698498489904664]]]},"properties":{"highway":"service","id":"osm-way-777653769","osmType":"way","osmId":"777653769","name":"Via de serviço","named":false,"category":"road","kind":"service","source":"OpenStreetMap","sourceUrl":"https://www.openstreetmap.org/way/777653769","tags":"{\"highway\":\"service\"}","clippedToPort":true,"lengthM":598.5}},{"type":"Feature","id":"osm-way-777653774","geometry":{"type":"LineString","coordinates":[[-44.3677221,-2.5748308],[-44.3676555,-2.5747675],[-44.367558,-2.57469],[-44.3674632,-2.5746322],[-44.3673485,-2.5745824],[-44.3672277,-2.5745327],[-44.3671331,-2.5744995]]},"properties":{"highway":"unclassified","oneway":"yes","id":"osm-way-777653774","osmType":"way","osmId":"777653774","name":"Via local","named":false,"category":"road","kind":"unclassified","source":"OpenStreetMap","sourceUrl":"https://www.openstreetmap.org/way/777653774","tags":"{\"highway\":\"unclassified\",\"oneway\":\"yes\"}","clippedToPort":false,"lengthM":75.9}},{"type":"Feature","id":"osm-way-777653775","geometry":{"type":"LineString","coordinates":[[-44.3672741,-2.5742311],[-44.3674439,-2.574397],[-44.3677287,-2.5747009],[-44.3677631,-2.5747376]]},"properties":{"highway":"unclassified","oneway":"yes","source":"OpenStreetMap","id":"osm-way-777653775","osmType":"way","osmId":"777653775","name":"Via local","named":false,"category":"road","kind":"unclassified","sourceUrl":"https://www.openstreetmap.org/way/777653775","tags":"{\"highway\":\"unclassified\",\"oneway\":\"yes\",\"source\":\"Yahoo hires\"}","clippedToPort":false,"lengthM":78.3}},{"type":"Feature","id":"osm-way-777653776","geometry":{"type":"LineString","coordinates":[[-44.3671137,-2.5740423],[-44.3672122,-2.5741493],[-44.3672741,-2.5742311]]},"properties":{"highway":"tertiary","junction":"roundabout","oneway":"yes","source":"OpenStreetMap","id":"osm-way-777653776","osmType":"way","osmId":"777653776","name":"Via coletora","named":false,"category":"road","kind":"tertiary","sourceUrl":"https://www.openstreetmap.org/way/777653776","tags":"{\"highway\":\"tertiary\",\"junction\":\"roundabout\",\"oneway\":\"yes\",\"source\":\"Yahoo hires\"}","clippedToPort":false,"lengthM":27.6}},{"type":"Feature","id":"osm-way-777662776","geometry":{"type":"LineString","coordinates":[[-44.366766,-2.5764587],[-44.366772,-2.5764357],[-44.3667966,-2.5764159]]},"properties":{"highway":"service","id":"osm-way-777662776","osmType":"way","osmId":"777662776","name":"Via de serviço","named":false,"category":"road","kind":"service","source":"OpenStreetMap","sourceUrl":"https://www.openstreetmap.org/way/777662776","tags":"{\"highway\":\"service\"}","clippedToPort":false,"lengthM":6.2}},{"type":"Feature","id":"osm-way-778158605","geometry":{"type":"LineString","coordinates":[[-44.3667747,-2.5765056],[-44.3667439,-2.5765175],[-44.3667204,-2.5765315],[-44.3666942,-2.5765523],[-44.3666372,-2.5766079],[-44.3665977,-2.576638],[-44.3665648,-2.5766508],[-44.3665353,-2.5766441],[-44.3665031,-2.576618],[-44.3663824,-2.5764893],[-44.3662121,-2.5763252],[-44.3661363,-2.5762395],[-44.3661055,-2.5762053],[-44.3660894,-2.5761792],[-44.3660847,-2.576143],[-44.3660941,-2.5761062],[-44.3661202,-2.5760687],[-44.3661591,-2.5760405],[-44.3661826,-2.5760238],[-44.3662202,-2.5760318],[-44.366251,-2.5760425],[-44.3663006,-2.5760928],[-44.3664153,-2.5762261]]},"properties":{"highway":"service","id":"osm-way-778158605","osmType":"way","osmId":"778158605","name":"Via de serviço","named":false,"category":"road","kind":"service","source":"OpenStreetMap","sourceUrl":"https://www.openstreetmap.org/way/778158605","tags":"{\"highway\":\"service\"}","clippedToPort":false,"lengthM":161.0}},{"type":"Feature","id":"osm-way-778728112","geometry":{"type":"LineString","coordinates":[[-44.3664153,-2.5762261],[-44.3666942,-2.5765523]]},"properties":{"highway":"service","id":"osm-way-778728112","osmType":"way","osmId":"778728112","name":"Via de serviço","named":false,"category":"road","kind":"service","source":"OpenStreetMap","sourceUrl":"https://www.openstreetmap.org/way/778728112","tags":"{\"highway\":\"service\"}","clippedToPort":false,"lengthM":47.7}},{"type":"Feature","id":"osm-way-780057560","geometry":{"type":"LineString","coordinates":[[-44.365296,-2.5755629],[-44.3656948,-2.5753137],[-44.365745,-2.575273],[-44.3662597,-2.5747751],[-44.3663536,-2.5746813],[-44.3665451,-2.5744799],[-44.3666222,-2.5743904],[-44.3666737,-2.5743195],[-44.3667921,-2.574128]]},"properties":{"highway":"tertiary","oneway":"yes","source":"OpenStreetMap","id":"osm-way-780057560","osmType":"way","osmId":"780057560","name":"Via coletora","named":false,"category":"road","kind":"tertiary","sourceUrl":"https://www.openstreetmap.org/way/780057560","tags":"{\"highway\":\"tertiary\",\"oneway\":\"yes\",\"source\":\"Yahoo hires\"}","clippedToPort":false,"lengthM":232.6}},{"type":"Feature","id":"osm-way-821948035","geometry":{"type":"LineString","coordinates":[[-44.3676555,-2.5747675],[-44.3677287,-2.5747009]]},"properties":{"highway":"service","id":"osm-way-821948035","osmType":"way","osmId":"821948035","name":"Via de serviço","named":false,"category":"road","kind":"service","source":"OpenStreetMap","sourceUrl":"https://www.openstreetmap.org/way/821948035","tags":"{\"highway\":\"service\"}","clippedToPort":false,"lengthM":11.0}},{"type":"Feature","id":"osm-way-821948036","geometry":{"type":"LineString","coordinates":[[-44.3670854,-2.574644],[-44.3672704,-2.5748646],[-44.367274,-2.5748686],[-44.3672814,-2.5748684],[-44.3674419,-2.5747483]]},"properties":{"highway":"service","service":"parking_aisle","id":"osm-way-821948036","osmType":"way","osmId":"821948036","name":"Via de serviço","named":false,"category":"road","kind":"service","source":"OpenStreetMap","sourceUrl":"https://www.openstreetmap.org/way/821948036","tags":"{\"highway\":\"service\",\"service\":\"parking_aisle\"}","clippedToPort":false,"lengthM":55.7}},{"type":"Feature","id":"osm-way-821962105","geometry":{"type":"LineString","coordinates":[[-44.3661855,-2.5750748],[-44.3667508,-2.5746907],[-44.3670135,-2.5745084]]},"properties":{"highway":"service","id":"osm-way-821962105","osmType":"way","osmId":"821962105","name":"Via de serviço","named":false,"category":"road","kind":"service","source":"OpenStreetMap","sourceUrl":"https://www.openstreetmap.org/way/821962105","tags":"{\"highway\":\"service\"}","clippedToPort":false,"lengthM":111.5}},{"type":"Feature","id":"osm-way-821962106","geometry":{"type":"LineString","coordinates":[[-44.3661313,-2.5749816],[-44.3661855,-2.5750748],[-44.3663597,-2.5753743],[-44.3667365,-2.5751514],[-44.36689,-2.5750672],[-44.3669397,-2.5750257],[-44.3669316,-2.574968],[-44.3668398,-2.5747932]]},"properties":{"highway":"service","id":"osm-way-821962106","osmType":"way","osmId":"821962106","name":"Via de serviço","named":false,"category":"road","kind":"service","source":"OpenStreetMap","sourceUrl":"https://www.openstreetmap.org/way/821962106","tags":"{\"highway\":\"service\"}","clippedToPort":false,"lengthM":154.2}},{"type":"Feature","id":"osm-way-821965730","geometry":{"type":"LineString","coordinates":[[-44.3670268,-2.5722687],[-44.366957,-2.5718068],[-44.3668988,-2.5713842],[-44.3668345,-2.5711333],[-44.36681,-2.5708969],[-44.3668119,-2.5708845],[-44.3668361,-2.5708665],[-44.3668699,-2.5708612],[-44.367253,-2.5708279],[-44.3673099,-2.5707818]]},"properties":{"highway":"service","id":"osm-way-821965730","osmType":"way","osmId":"821965730","name":"Via de serviço","named":false,"category":"road","kind":"service","source":"OpenStreetMap","sourceUrl":"https://www.openstreetmap.org/way/821965730","tags":"{\"highway\":\"service\"}","clippedToPort":false,"lengthM":214.0}},{"type":"Feature","id":"osm-way-835364288","geometry":{"type":"LineString","coordinates":[[-44.3668925,-2.5765235],[-44.3668043,-2.5764833],[-44.366766,-2.5764587],[-44.366733,-2.5764347],[-44.3665367,-2.5762438],[-44.3661629,-2.5758341],[-44.3660849,-2.5757486],[-44.3658433,-2.5754839],[-44.3657293,-2.5753597]]},"properties":{"highway":"unclassified","oneway":"yes","id":"osm-way-835364288","osmType":"way","osmId":"835364288","name":"Via local","named":false,"category":"road","kind":"unclassified","source":"OpenStreetMap","sourceUrl":"https://www.openstreetmap.org/way/835364288","tags":"{\"highway\":\"unclassified\",\"oneway\":\"yes\"}","clippedToPort":false,"lengthM":183.9}},{"type":"Feature","id":"osm-way-835364289","geometry":{"type":"LineString","coordinates":[[-44.3668925,-2.5765235],[-44.367262,-2.5769038],[-44.367518,-2.5772033]]},"properties":{"highway":"unclassified","oneway":"no","id":"osm-way-835364289","osmType":"way","osmId":"835364289","name":"Via local","named":false,"category":"road","kind":"unclassified","source":"OpenStreetMap","sourceUrl":"https://www.openstreetmap.org/way/835364289","tags":"{\"highway\":\"unclassified\",\"oneway\":\"no\"}","clippedToPort":false,"lengthM":102.7}},{"type":"Feature","id":"osm-way-974025743","geometry":{"type":"LineString","coordinates":[[-44.3691669,-2.576931],[-44.3691909,-2.5767202],[-44.3692226,-2.5764425]]},"properties":{"highway":"service","id":"osm-way-974025743","osmType":"way","osmId":"974025743","name":"Via de serviço","named":false,"category":"road","kind":"service","source":"OpenStreetMap","sourceUrl":"https://www.openstreetmap.org/way/974025743","tags":"{\"highway\":\"service\"}","clippedToPort":false,"lengthM":54.7}},{"type":"Feature","id":"osm-way-974025744","geometry":{"type":"LineString","coordinates":[[-44.368669,-2.5759065],[-44.3687408,-2.5758791],[-44.3691391,-2.5763333],[-44.3692226,-2.5764425],[-44.3694676,-2.5767633],[-44.3695308,-2.5767851],[-44.3695736,-2.5767995],[-44.3696487,-2.576774],[-44.3698029,-2.5765945]]},"properties":{"highway":"service","id":"osm-way-974025744","osmType":"way","osmId":"974025744","name":"Via de serviço","named":false,"category":"road","kind":"service","source":"OpenStreetMap","sourceUrl":"https://www.openstreetmap.org/way/974025744","tags":"{\"highway\":\"service\"}","clippedToPort":false,"lengthM":183.4}},{"type":"Feature","id":"osm-way-974025745","geometry":{"type":"LineString","coordinates":[[-44.3687918,-2.5769326],[-44.3690948,-2.5769201],[-44.3691669,-2.576931],[-44.369422,-2.5769696],[-44.3696099,-2.57699],[-44.3697305,-2.5770031],[-44.3697613,-2.5769348],[-44.3697909,-2.5767633],[-44.3698029,-2.5765945],[-44.3699853,-2.5763024],[-44.370161,-2.5759434],[-44.3704252,-2.5755642],[-44.3708503,-2.5750699],[-44.3720305,-2.5735372]]},"properties":{"highway":"service","id":"osm-way-974025745","osmType":"way","osmId":"974025745","name":"Via de serviço","named":false,"category":"road","kind":"service","source":"OpenStreetMap","sourceUrl":"https://www.openstreetmap.org/way/974025745","tags":"{\"highway\":\"service\"}","clippedToPort":false,"lengthM":573.0}},{"type":"Feature","id":"osm-way-974025746","geometry":{"type":"LineString","coordinates":[[-44.36608,-2.5759273],[-44.3659914,-2.5758292]]},"properties":{"highway":"service","id":"osm-way-974025746","osmType":"way","osmId":"974025746","name":"Via de serviço","named":false,"category":"road","kind":"service","source":"OpenStreetMap","sourceUrl":"https://www.openstreetmap.org/way/974025746","tags":"{\"highway\":\"service\"}","clippedToPort":false,"lengthM":14.7}},{"type":"Feature","id":"osm-way-974025747","geometry":{"type":"LineString","coordinates":[[-44.3661629,-2.5758341],[-44.3660934,-2.5758938],[-44.36608,-2.5759273],[-44.3661826,-2.5760238]]},"properties":{"highway":"service","id":"osm-way-974025747","osmType":"way","osmId":"974025747","name":"Via de serviço","named":false,"category":"road","kind":"service","source":"OpenStreetMap","sourceUrl":"https://www.openstreetmap.org/way/974025747","tags":"{\"highway\":\"service\"}","clippedToPort":false,"lengthM":29.8}},{"type":"Feature","id":"osm-way-974025748","geometry":{"type":"LineString","coordinates":[[-44.3660847,-2.576143],[-44.3659231,-2.5759755],[-44.3659043,-2.5759233],[-44.3659258,-2.5758858],[-44.3659914,-2.5758292],[-44.3660849,-2.5757486]]},"properties":{"highway":"service","id":"osm-way-974025748","osmType":"way","osmId":"974025748","name":"Via de serviço","named":false,"category":"road","kind":"service","source":"OpenStreetMap","sourceUrl":"https://www.openstreetmap.org/way/974025748","tags":"{\"highway\":\"service\"}","clippedToPort":false,"lengthM":60.2}},{"type":"Feature","id":"osm-way-974025749","geometry":{"type":"LineString","coordinates":[[-44.3667365,-2.5751514],[-44.3667707,-2.5752655],[-44.3667626,-2.5753191],[-44.3664944,-2.5755415],[-44.3663597,-2.5753743]]},"properties":{"highway":"service","id":"osm-way-974025749","osmType":"way","osmId":"974025749","name":"Via de serviço","named":false,"category":"road","kind":"service","source":"OpenStreetMap","sourceUrl":"https://www.openstreetmap.org/way/974025749","tags":"{\"highway\":\"service\"}","clippedToPort":false,"lengthM":81.9}},{"type":"Feature","id":"osm-way-974025750","geometry":{"type":"LineString","coordinates":[[-44.3670543,-2.5746686],[-44.3668398,-2.5747932],[-44.3668253,-2.5747915],[-44.3668102,-2.5747812],[-44.3667508,-2.5746907]]},"properties":{"highway":"service","id":"osm-way-974025750","osmType":"way","osmId":"974025750","name":"Via de serviço","named":false,"category":"road","kind":"service","source":"OpenStreetMap","sourceUrl":"https://www.openstreetmap.org/way/974025750","tags":"{\"highway\":\"service\"}","clippedToPort":false,"lengthM":43.2}},{"type":"Feature","id":"osm-way-974025751","geometry":{"type":"LineString","coordinates":[[-44.364238,-2.5729384],[-44.3643567,-2.5729638],[-44.3644358,-2.5729745],[-44.3645404,-2.5730535],[-44.3646088,-2.5731125]]},"properties":{"highway":"service","id":"osm-way-974025751","osmType":"way","osmId":"974025751","name":"Via de serviço","named":false,"category":"road","kind":"service","source":"OpenStreetMap","sourceUrl":"https://www.openstreetmap.org/way/974025751","tags":"{\"highway\":\"service\"}","clippedToPort":false,"lengthM":47.0}},{"type":"Feature","id":"osm-way-974025752","geometry":{"type":"LineString","coordinates":[[-44.3635152,-2.5729979],[-44.3635346,-2.5728968],[-44.3635628,-2.5728191],[-44.3636097,-2.5727923],[-44.3638377,-2.5727642]]},"properties":{"highway":"service","id":"osm-way-974025752","osmType":"way","osmId":"974025752","name":"Via de serviço","named":false,"category":"road","kind":"service","source":"OpenStreetMap","sourceUrl":"https://www.openstreetmap.org/way/974025752","tags":"{\"highway\":\"service\"}","clippedToPort":false,"lengthM":52.2}},{"type":"Feature","id":"osm-way-974204663","geometry":{"type":"LineString","coordinates":[[-44.3668988,-2.5713842],[-44.3670268,-2.5712167],[-44.3671609,-2.5710359],[-44.367253,-2.5708279]]},"properties":{"highway":"service","id":"osm-way-974204663","osmType":"way","osmId":"974204663","name":"Via de serviço","named":false,"category":"road","kind":"service","source":"OpenStreetMap","sourceUrl":"https://www.openstreetmap.org/way/974204663","tags":"{\"highway\":\"service\"}","clippedToPort":false,"lengthM":73.7}},{"type":"Feature","id":"osm-way-974204664","geometry":{"type":"LineString","coordinates":[[-44.3668361,-2.5708665],[-44.36654,-2.5691589],[-44.3663415,-2.5677789],[-44.3661833,-2.5668036],[-44.36616125131418,-2.566677765167945]]},"properties":{"highway":"service","id":"osm-way-974204664","osmType":"way","osmId":"974204664","name":"Via de serviço","named":false,"category":"road","kind":"service","source":"OpenStreetMap","sourceUrl":"https://www.openstreetmap.org/way/974204664","tags":"{\"highway\":\"service\"}","clippedToPort":true,"lengthM":471.8}},{"type":"Feature","id":"osm-way-974204665","geometry":{"type":"LineString","coordinates":[[-44.3677403,-2.5781553],[-44.3675861,-2.5779343],[-44.367519,-2.5778137],[-44.3674466,-2.5777654],[-44.3673527,-2.5777949],[-44.3672588,-2.5778632],[-44.367175,-2.5779745]]},"properties":{"highway":"service","id":"osm-way-974204665","osmType":"way","osmId":"974204665","name":"Via de serviço","named":false,"category":"road","kind":"service","source":"OpenStreetMap","sourceUrl":"https://www.openstreetmap.org/way/974204665","tags":"{\"highway\":\"service\"}","clippedToPort":false,"lengthM":94.3}},{"type":"Feature","id":"osm-way-974204666","geometry":{"type":"LineString","coordinates":[[-44.3686159,-2.5781167],[-44.368097,-2.5780347],[-44.3679039,-2.5780267],[-44.3677913,-2.5780883],[-44.3677403,-2.5781553],[-44.3677162,-2.5785532]]},"properties":{"highway":"service","id":"osm-way-974204666","osmType":"way","osmId":"974204666","name":"Via de serviço","named":false,"category":"road","kind":"service","source":"OpenStreetMap","sourceUrl":"https://www.openstreetmap.org/way/974204666","tags":"{\"highway\":\"service\"}","clippedToPort":false,"lengthM":147.8}},{"type":"Feature","id":"osm-way-974204667","geometry":{"type":"LineString","coordinates":[[-44.367274,-2.5748686],[-44.3672428,-2.5749325],[-44.3671679,-2.5749838]]},"properties":{"highway":"service","id":"osm-way-974204667","osmType":"way","osmId":"974204667","name":"Via de serviço","named":false,"category":"road","kind":"service","source":"OpenStreetMap","sourceUrl":"https://www.openstreetmap.org/way/974204667","tags":"{\"highway\":\"service\"}","clippedToPort":false,"lengthM":18.0}},{"type":"Feature","id":"osm-way-974204668","geometry":{"type":"LineString","coordinates":[[-44.367082,-2.5681813],[-44.3671596,-2.5680549],[-44.3671864,-2.5678807],[-44.3670872,-2.5671358],[-44.3670255,-2.5669134]]},"properties":{"highway":"service","id":"osm-way-974204668","osmType":"way","osmId":"974204668","name":"Via de serviço","named":false,"category":"road","kind":"service","source":"OpenStreetMap","sourceUrl":"https://www.openstreetmap.org/way/974204668","tags":"{\"highway\":\"service\"}","clippedToPort":false,"lengthM":145.3}},{"type":"Feature","id":"osm-way-974204671","geometry":{"type":"LineString","coordinates":[[-44.3675217,-2.5693089],[-44.367342,-2.5688373],[-44.367082,-2.5681813],[-44.3670255,-2.5680388],[-44.3669611,-2.5677521],[-44.366819,-2.5666803],[-44.36680594556229,-2.566545415716731]]},"properties":{"highway":"service","id":"osm-way-974204671","osmType":"way","osmId":"974204671","name":"Via de serviço","named":false,"category":"road","kind":"service","source":"OpenStreetMap","sourceUrl":"https://www.openstreetmap.org/way/974204671","tags":"{\"highway\":\"service\"}","clippedToPort":true,"lengthM":319.6}},{"type":"Feature","id":"osm-way-974204673","geometry":{"type":"LineString","coordinates":[[-44.3694676,-2.5767633],[-44.3691909,-2.5767202]]},"properties":{"highway":"service","id":"osm-way-974204673","osmType":"way","osmId":"974204673","name":"Via de serviço","named":false,"category":"road","kind":"service","source":"OpenStreetMap","sourceUrl":"https://www.openstreetmap.org/way/974204673","tags":"{\"highway\":\"service\"}","clippedToPort":false,"lengthM":31.1}},{"type":"Feature","id":"osm-way-974204674","geometry":{"type":"LineString","coordinates":[[-44.3627038,-2.5730455],[-44.3625851,-2.5732103],[-44.3625596,-2.5733148],[-44.3626119,-2.5734943],[-44.3627125,-2.5736591],[-44.362742,-2.5738092],[-44.3627594,-2.5739096],[-44.3627554,-2.5739887],[-44.3627125,-2.5740584]]},"properties":{"highway":"service","id":"osm-way-974204674","osmType":"way","osmId":"974204674","name":"Via de serviço","named":false,"category":"road","kind":"service","source":"OpenStreetMap","sourceUrl":"https://www.openstreetmap.org/way/974204674","tags":"{\"highway\":\"service\"}","clippedToPort":false,"lengthM":123.0}},{"type":"Feature","id":"osm-way-974204675","geometry":{"type":"LineString","coordinates":[[-44.3681869,-2.5762998],[-44.3678275,-2.5763989],[-44.3676075,-2.5763453],[-44.3669745,-2.5762971],[-44.366878,-2.5763453],[-44.3667966,-2.5764159]]},"properties":{"highway":"service","id":"osm-way-974204675","osmType":"way","osmId":"974204675","name":"Via de serviço","named":false,"category":"road","kind":"service","source":"OpenStreetMap","sourceUrl":"https://www.openstreetmap.org/way/974204675","tags":"{\"highway\":\"service\"}","clippedToPort":false,"lengthM":161.0}},{"type":"Feature","id":"osm-way-974206583","geometry":{"type":"LineString","coordinates":[[-44.3683953,-2.5794933],[-44.3691069,-2.5795875],[-44.3692625,-2.5795446],[-44.3693483,-2.5793008],[-44.36941,-2.5788614]]},"properties":{"highway":"service","id":"osm-way-974206583","osmType":"way","osmId":"974206583","name":"Via de serviço","named":false,"category":"road","kind":"service","source":"OpenStreetMap","sourceUrl":"https://www.openstreetmap.org/way/974206583","tags":"{\"highway\":\"service\"}","clippedToPort":false,"lengthM":175.7}},{"type":"Feature","id":"osm-way-997641521","geometry":{"type":"Polygon","coordinates":[[[-44.3608742,-2.5750669],[-44.3608338,-2.5750747],[-44.3607929,-2.5750708],[-44.3607547,-2.5750556],[-44.3607224,-2.5750302],[-44.3606985,-2.5749967],[-44.360685,-2.5749579],[-44.3606831,-2.5749169],[-44.3606928,-2.5748769],[-44.3607133,-2.5748413],[-44.3607431,-2.574813],[-44.3607796,-2.5747941],[-44.36082,-2.5747864],[-44.3608609,-2.5747903],[-44.3608991,-2.5748055],[-44.3609314,-2.5748309],[-44.3609553,-2.5748644],[-44.3609688,-2.5749032],[-44.3609707,-2.5749442],[-44.3609611,-2.5749841],[-44.3609405,-2.5750197],[-44.3609108,-2.5750481],[-44.3608742,-2.5750669]]]},"properties":{"building":"storage_tank","man_made":"storage_tank","id":"osm-way-997641521","osmType":"way","osmId":"997641521","name":"Tanque de armazenamento","named":false,"category":"building","kind":"storage_tank","source":"OpenStreetMap","sourceUrl":"https://www.openstreetmap.org/way/997641521","tags":"{\"building\":\"storage_tank\",\"man_made\":\"storage_tank\"}","clippedToPort":false,"areaM2":798.2}},{"type":"Feature","id":"osm-way-997641522","geometry":{"type":"Polygon","coordinates":[[[-44.3605872,-2.5747615],[-44.3605468,-2.5747692],[-44.3605059,-2.5747654],[-44.3604677,-2.5747501],[-44.3604354,-2.5747247],[-44.3604115,-2.5746912],[-44.3603981,-2.5746524],[-44.3603961,-2.5746114],[-44.3604058,-2.5745715],[-44.3604263,-2.5745359],[-44.3604561,-2.5745075],[-44.3604926,-2.5744887],[-44.360533,-2.5744809],[-44.3605739,-2.5744848],[-44.3606121,-2.5745],[-44.3606445,-2.5745254],[-44.3606683,-2.5745589],[-44.3606818,-2.5745977],[-44.3606837,-2.5746387],[-44.3606741,-2.5746787],[-44.3606535,-2.5747143],[-44.3606238,-2.5747426],[-44.3605872,-2.5747615]]]},"properties":{"building":"storage_tank","man_made":"storage_tank","id":"osm-way-997641522","osmType":"way","osmId":"997641522","name":"Tanque de armazenamento","named":false,"category":"building","kind":"storage_tank","source":"OpenStreetMap","sourceUrl":"https://www.openstreetmap.org/way/997641522","tags":"{\"building\":\"storage_tank\",\"man_made\":\"storage_tank\"}","clippedToPort":false,"areaM2":798.3}},{"type":"Feature","id":"osm-way-997641523","geometry":{"type":"Polygon","coordinates":[[[-44.3605604,-2.575359],[-44.36052,-2.5753668],[-44.3604791,-2.5753629],[-44.3604409,-2.5753476],[-44.3604086,-2.5753222],[-44.3603847,-2.5752888],[-44.3603712,-2.57525],[-44.3603693,-2.5752089],[-44.3603789,-2.575169],[-44.3603995,-2.5751334],[-44.3604292,-2.5751051],[-44.3604658,-2.5750862],[-44.3605062,-2.5750784],[-44.3605471,-2.5750823],[-44.3605853,-2.5750976],[-44.3606176,-2.575123],[-44.3606415,-2.5751564],[-44.360655,-2.5751952],[-44.3606569,-2.5752363],[-44.3606472,-2.5752762],[-44.3606267,-2.5753118],[-44.3605969,-2.5753401],[-44.3605604,-2.575359]]]},"properties":{"building":"storage_tank","man_made":"storage_tank","id":"osm-way-997641523","osmType":"way","osmId":"997641523","name":"Tanque de armazenamento","named":false,"category":"building","kind":"storage_tank","source":"OpenStreetMap","sourceUrl":"https://www.openstreetmap.org/way/997641523","tags":"{\"building\":\"storage_tank\",\"man_made\":\"storage_tank\"}","clippedToPort":false,"areaM2":798.3}}]}
